IRIDIUM 144             
1 43249U 18030A   25086.78184396  .00000242  00000+0  79502-4 0  9995
2 43249  86.3928 117.0557 0002109  91.3722 268.7715 14.34215162366170
IRIDIUM 149             
1 43250U 18030B   25087.48587395  .00000307  00000+0  10264-3 0  9992
2 43250  86.3928 116.7333 0002121  94.0601 266.0838 14.34215715366272
IRIDIUM 157             
1 43251U 18030C   25086.80721777  .00000349  00000+0  11773-3 0  9994
2 43251  86.3930 117.0604 0002543  95.0184 265.1302 14.34216118366157
IRIDIUM 140             
1 43252U 18030D   25087.17508683  .00000294  00000+0  97987-4 0  9996
2 43252  86.3930 116.9206 0002114  90.6176 269.5262 14.34216046366265
IRIDIUM 145             
1 43253U 18030E   25086.53448331  .00000337  00000+0  11319-3 0  9991
2 43253  86.3931 117.1615 0001877  95.2329 264.9081 14.34216488366101
IRIDIUM 146             
1 43254U 18030F   25086.65499037  .00000376  00000+0  12722-3 0  9996
2 43254  86.3929 117.1248 0001845  94.4623 265.6784 14.34216771366130
IRIDIUM 148             
1 43255U 18030G   25087.11165867  .00000221  00000+0  71796-4 0  9996
2 43255  86.3930 116.9700 0002206  97.7357 262.4090 14.34216361366247
IRIDIUM 142             
1 43256U 18030H   25086.59156218 -.00000027  00000+0 -16561-4 0  9993
2 43256  86.3931 117.0926 0001722  99.0201 261.1190 14.34215647366126
